CUTE-1 (CO-55)          
1 27844U 03031E   24303.49197221  .00001672  00000+0  75280-3 0  9999
2 27844  98.6792 308.6931 0010745 112.1460 248.0860 14.23584137106890
CUBESAT XI-IV (CO-57)   
1 27848U 03031J   24303.48076907  .00001425  00000+0  65192-3 0  9996
2 27848  98.6824 308.8467 0010483 127.2293 232.9843 14.22979954106635
CUBESAT XI-V            
1 28895U 05043F   24303.62512910  .00008065  00000+0  13783-2 0  9994
2 28895  98.2202  79.9100 0014301 293.8920  66.0786 14.69091776 14182
CUTE-1.7+APD II (CO-65) 
1 32785U 08021C   24303.47776929  .00017010  00000+0  13774-2 0  9991
2 32785  97.7740 268.0570 0008195 238.6173 121.4249 14.99773224895588
AAUSAT-II               
1 32788U 08021F   24303.38150730  .00085480  00000+0  29131-2 0  9990
2 32788  97.6033 285.1103 0008550  74.8251 285.3934 15.30002505898845
CANX-2                  
1 32790U 08021H   24303.35896168  .00014066  00000+0  11999-2 0  9997
2 32790  97.7831 266.5443 0009946 246.0787 113.9394 14.97792140895354
SEEDS II (CO-66)        
1 32791U 08021J   24303.67660944  .00032083  00000+0  20208-2 0  9996
2 32791  97.7056 274.6404 0003736 177.1487 182.9763 15.09087594896848
SWISSCUBE               
1 35932U 09051B   24303.39982513  .00005546  00000+0  11645-2 0  9997
2 35932  98.4502 189.3264 0005682 266.3182  93.7368 14.60021138802130
BEESAT-1                
1 35933U 09051C   24303.22849344  .00004953  00000+0  10503-2 0  9997
2 35933  98.4432 189.8757 0004213 284.0007  76.0724 14.59624079802172
ITUPSAT1                
1 35935U 09051E   24303.13584282  .00004502  00000+0  97885-3 0  9995
2 35935  98.4531 189.4889 0006546 290.5534  69.4962 14.58511544801781
TISAT 1                 
1 36799U 10035E   24303.22176218  .00028881  00000+0  19072-2 0  9991
2 36799  98.0703 198.7421 0005584 117.8143 242.3650 15.07366686777216
AEROCUBE 4.5A           
1 38767U 12048K   24303.54117591  .00056183  00000+0  23670-2 0  9993
2 38767  64.6556 240.1993 0111346 335.0468  24.5295 15.17466603280790
AEROCUBE 4.5B           
1 38768U 12048L   24303.30414441  .00123228  00000+0  24210-2 0  9998
2 38768  64.6479 153.4044 0074479 320.2122  39.3566 15.43642402281974
STRAND-1                
1 39090U 13009E   24303.52626410  .00001798  00000+0  62825-3 0  9992
2 39090  98.3793 128.1556 0008245 205.4214 154.6568 14.36397705611544
BRITE-AUSTRIA           
1 39091U 13009F   24303.46191448  .00001124  00000+0  40129-3 0  9990
2 39091  98.3842 127.3684 0009609 214.1188 145.9382 14.36025745611533
NEE-01 PEGASO           
1 39151U 13018B   24303.28726555  .00012460  00000+0  13662-2 0  9996
2 39151  98.0501  61.9886 0013595 325.0248  35.0073 14.87809064621890
ESTCUBE 1               
1 39161U 13021C   24303.13892758  .00009598  00000+0  13411-2 0  9994
2 39161  97.8142   5.5299 0009497 149.4303 210.7463 14.77799158616864
POPACS 1                
1 39268U 13055D   24303.42731010  .00078130  35282-6  11203-2 0  9996
2 39268  80.9779 355.4738 0348460  16.3121 344.8980 15.08549060580652
POPACS 2                
1 39269U 13055E   24303.41197046  .00027299  00000+0  60432-3 0  9993
2 39269  80.9978  92.9964 0524374 271.6623  82.4607 14.63311004575189
POPACS 3                
1 39270U 13055F   24303.52946601  .00018978  00000+0  50084-3 0  9992
2 39270  81.0042 148.2239 0612435  66.0564 300.3511 14.41070138552289
ZACUBE-1 (TSHEPISOSAT)  
1 39417U 13066B   24303.32100058  .00016981  00000+0  16339-2 0  9999
2 39417  97.7498 256.6210 0050404  76.3599 284.3226 14.92079940591562
WNISAT-1                
1 39423U 13066H   24303.47817057  .00003859  00000+0  73522-3 0  9994
2 39423  97.6663 126.9782 0167145 307.7130  50.9016 14.55988554579972
TRITON-1                
1 39427U 13066M   24303.64399782  .00015629  00000+0  20895-2 0  9999
2 39427  97.8376 217.4150 0100051   9.7800 350.5326 14.76104009586227
DELFI-N3XT              
1 39428U 13066N   24303.48959659  .00027754  00000+0  32225-2 0  9999
2 39428  97.8333 218.5505 0095855  13.5788 346.7971 14.82032448585956
GOMX-1                  
1 39430U 13066Q   24303.48355575  .00007802  00000+0  12574-2 0  9996
2 39430  97.7092 169.7067 0136377 184.7542 175.2378 14.65651608582526
CUBEBUG-2 (LO-74)       
1 39440U 13066AA  24303.31522342  .00013598  00000+0  15008-2 0  9991
2 39440  97.8235 244.3646 0065886 193.2997 166.6485 14.85982622588237
NEE-02 KRYSAOR          
1 39441U 13066AB  24303.56455134  .00009030  00000+0  10980-2 0  9993
2 39441  97.8323 239.8914 0070710 217.5215 142.1052 14.81911238587822
FUNCUBE-1 (AO-73)       
1 39444U 13066AE  24303.32414496  .00023031  00000+0  20147-2 0  9999
2 39444  97.7355 260.1661 0047341  55.5884 304.9799 14.95861218590132
UWE-3                   
1 39446U 13066AG  24303.60915137  .00014861  00000+0  15422-2 0  9991
2 39446  97.7957 250.7857 0058935 135.2900 225.3090 14.88756111589270
BRITE-CA1 (TORONTO)     
1 40020U 14033L   24303.60747700  .00004394  00000+0  69741-3 0  9999
2 40020  97.8966  76.2264 0082229  23.6088 336.8858 14.70370195554721
DUCHIFAT-1              
1 40021U 14033M   24303.40247870  .00044283  00000+0  24122-2 0  9995
2 40021  98.0994 294.8184 0012499  19.2252 340.9448 15.14199989564384
NANOSATC-BR1            
1 40024U 14033Q   24303.65854148  .00030878  00000+0  19668-2 0  9991
2 40024  98.0772 281.9196 0008747  79.0389 281.1822 15.08663453564003
QB50P1                  
1 40025U 14033R   24303.17404233  .00022860  00000+0  16653-2 0  9998
2 40025  98.0600 268.8028 0014981  88.7924 271.5016 15.03675785562980
QB50P2                  
1 40032U 14033Y   24303.13471342  .00025331  00000+0  19216-2 0  9991
2 40032  98.0175 259.5048 0012030  47.8580 312.3664 15.02150772562752
PERSEUS-M2              
1 40037U 14033AD  24303.57854859  .00007773  00000+0  77430-3 0  9995
2 40037  97.9342 234.9801 0014552 108.5248 251.7553 14.91807796562353
PERSEUS-M1              
1 40039U 14033AF  24303.55388893  .00008902  00000+0  88904-3 0  9998
2 40039  97.9114 230.6158 0014385 107.8013 252.4776 14.91661667562211
POLYITAN-1              
1 40042U 14033AJ  24303.40117660  .00034729  00000+0  22392-2 0  9992
2 40042  98.0852 273.7875 0014349  48.8629 311.3834 15.08132522563029
TIGRISAT                
1 40043U 14033AK  24303.37688986  .00010594  00000+0  13550-2 0  9993
2 40043  97.7087 100.5680 0053093 225.2491 134.4396 14.80539409557309
AEROCUBE 6A             
1 40045U 14033AM  24303.42587494  .00022228  00000+0  24404-2 0  9990
2 40045  97.6765 111.9623 0047145 199.1100 160.8349 14.86857405557714
AEROCUBE 6B             
1 40046U 14033AN  24302.90895362  .00025224  00000+0  27058-2 0  9996
2 40046  97.6734 110.2956 0045887 195.5848 164.3959 14.87811096557704
CANX-4                  
1 40055U 14034C   24303.46525980  .00005113  00000+0  69860-3 0  9998
2 40055  98.3822 143.8331 0014247 119.1801 241.0836 14.78981667556399
CANX-5                  
1 40056U 14034D   24303.53718220  .00005015  00000+0  68522-3 0  9993
2 40056  98.3826 143.9183 0014259 119.0406 241.2234 14.78992840547213
UKUBE-1                 
1 40074U 14037F   24303.54511888  .00025475  00000+0  21523-2 0  9999
2 40074  98.3497 242.1321 0004909  17.5890 342.5500 14.98063795558867
BRITE-PL2 (HEWELIUSZ)   
1 40119U 14049B   24303.23514356  .00009730  00000+0  10027-2 0  9994
2 40119  97.8872  42.4454 0014030 283.6093  76.3562 14.90379446552536
AEROCUBE 5C             
1 40965U 15058B   24303.33036330  .00014928  00000+0  12715-2 0  9997
2 40965  64.7693 309.2238 0190152 268.1162  89.8162 14.84983867276942
AEROCUBE 7              
1 40966U 15058C   24303.29004565  .00017300  00000+0  14054-2 0  9993
2 40966  64.7658 301.7292 0184062 267.7615  90.2411 14.87371335277030
FOX-1A (AO-85)          
1 40967U 15058D   24303.30969247  .00015067  00000+0  13111-2 0  9994
2 40967  64.7774 323.6518 0188363 263.8561  94.1060 14.84423199 24888
SINOD-D 1               
1 40968U 15058E   24303.28058870  .00018891  00000+0  15600-2 0  9996
2 40968  64.7771 315.0703 0181474 262.9057  95.1387 14.87056195 27734
SNAP-3 ALICE            
1 40970U 15058G   24303.23350052  .00049620  00000+0  28464-2 0  9997
2 40970  64.7679 263.3318 0142767 261.1168  97.3765 15.03978875 25882
LMRST-SAT               
1 40971U 15058H   24303.29063985  .00015086  00000+0  13096-2 0  9994
2 40971  64.7772 319.2700 0189778 265.2450  92.6966 14.84335472 24883
SNAP-3 EDDIE            
1 40972U 15058J   24303.60775278  .00050845  00000+0  28752-2 0  9992
2 40972  64.7654 255.2613 0142738 261.8395  96.6513 15.04463574 28042
PROPCUBE 3              
1 40973U 15058K   24303.40871448  .00017698  00000+0  14631-2 0  9997
2 40973  64.7702 305.3809 0185776 266.6232  91.3612 14.86518813 25969
BISONSAT                
1 40974U 15058L   24303.31006109  .00035864  00000+0  24156-2 0  9990
2 40974  64.7653 274.6067 0161242 264.4848  93.7857 14.96457220 25793
SNAP-3 JIMI             
1 40975U 15058M   24303.31093191  .00025226  00000+0  19153-2 0  9990
2 40975  64.7678 291.4422 0175477 265.7136  92.3908 14.90673967 24997
PROPCUBE 1 (FLORA)      
1 40976U 15058N   24303.52691748  .00014301  00000+0  12913-2 0  9995
2 40976  64.7770 334.7279 0188525 266.4846  91.4684 14.83078443 27709
SINOD-D 3               
1 40977U 15058P   24303.31424310  .00018469  00000+0  15830-2 0  9992
2 40977  64.7753 327.2446 0181610 265.8096  92.2241 14.85697935 25938
HORYU-4                 
1 41340U 16012D   24303.37311321  .00039953  00000+0  16455-2 0  9996
2 41340  31.0010 177.4155 0008922 273.2439  86.7182 15.22885215478572
RAVAN                   
1 41849U 16067B   24302.94437608  .00036809  00000+0  17418-2 0  9996
2 41849  98.0622 128.9909 0011096 294.9974  65.0106 15.19212004436257
CELTEE 1                
1 41850U 16067C   24303.01060323  .00017127  00000+0  10657-2 0  9993
2 41850  98.1079 119.7592 0002079  96.2526 263.8938 15.09686608435590
